[{"OBJECT_NAME":"STARLINK-11235 [DTC]","OBJECT_ID":"2024-152G","EPOCH":"2026-03-20T04:25:01.905312","MEAN_MOTION":15.6971241,"ECCENTRICITY":0.0001154,"INCLINATION":53.1602,"RA_OF_ASC_NODE":64.4989,"ARG_OF_PERICENTER":91.8924,"MEAN_ANOMALY":268.2226,"EPHEMERIS_TYPE":0,"CLASSIFICATION_TYPE":"U","NORAD_CAT_ID":60726,"ELEMENT_SET_NO":999,"REV_AT_EPOCH":9061,"BSTAR":1.4984e-5,"MEAN_MOTION_DOT":1.227e-5,"MEAN_MOTION_DDOT":0},{"OBJECT_NAME":"STARLINK-11080 [DTC]","OBJECT_ID":"2024-152H","EPOCH":"2026-03-20T04:17:58.119360","MEAN_MOTION":15.69710942,"ECCENTRICITY":9.2e-5,"INCLINATION":53.1581,"RA_OF_ASC_NODE":64.4664,"ARG_OF_PERICENTER":82.361,"MEAN_ANOMALY":277.7512,"EPHEMERIS_TYPE":0,"CLASSIFICATION_TYPE":"U","NORAD_CAT_ID":60727,"ELEMENT_SET_NO":999,"REV_AT_EPOCH":9061,"BSTAR":6.1106e-6,"MEAN_MOTION_DOT":1.52e-6,"MEAN_MOTION_DDOT":0},{"OBJECT_NAME":"STARLINK-11249 [DTC]","OBJECT_ID":"2024-152J","EPOCH":"2026-03-20T04:10:54.113088","MEAN_MOTION":15.69733142,"ECCENTRICITY":0.0001093,"INCLINATION":53.1592,"RA_OF_ASC_NODE":64.4346,"ARG_OF_PERICENTER":97.4171,"MEAN_ANOMALY":262.6971,"EPHEMERIS_TYPE":0,"CLASSIFICATION_TYPE":"U","NORAD_CAT_ID":60728,"ELEMENT_SET_NO":999,"REV_AT_EPOCH":9048,"BSTAR":-3.3457e-5,"MEAN_MOTION_DOT":-4.644e-5,"MEAN_MOTION_DDOT":0},{"OBJECT_NAME":"STARLINK-11146 [DTC]","OBJECT_ID":"2024-152K","EPOCH":"2026-03-20T05:35:31.792704","MEAN_MOTION":15.69700053,"ECCENTRICITY":9.44e-5,"INCLINATION":53.1601,"RA_OF_ASC_NODE":64.0743,"ARG_OF_PERICENTER":94.9887,"MEAN_ANOMALY":265.1238,"EPHEMERIS_TYPE":0,"CLASSIFICATION_TYPE":"U","NORAD_CAT_ID":60729,"ELEMENT_SET_NO":999,"REV_AT_EPOCH":9062,"BSTAR":-1.3186e-7,"MEAN_MOTION_DOT":-6.04e-6,"MEAN_MOTION_DDOT":0},{"OBJECT_NAME":"STARLINK-11255 [DTC]","OBJECT_ID":"2024-152L","EPOCH":"2026-03-20T03:56:46.655232","MEAN_MOTION":15.69708831,"ECCENTRICITY":9.65e-5,"INCLINATION":53.1593,"RA_OF_ASC_NODE":64.3685,"ARG_OF_PERICENTER":91.226,"MEAN_ANOMALY":268.8869,"EPHEMERIS_TYPE":0,"CLASSIFICATION_TYPE":"U","NORAD_CAT_ID":60730,"ELEMENT_SET_NO":999,"REV_AT_EPOCH":9049,"BSTAR":9.1236e-6,"MEAN_MOTION_DOT":5.17e-6,"MEAN_MOTION_DDOT":0},{"OBJECT_NAME":"STARLINK-11254 [DTC]","OBJECT_ID":"2024-152M","EPOCH":"2026-03-20T05:21:23.816448","MEAN_MOTION":15.69706029,"ECCENTRICITY":0.0001196,"INCLINATION":53.1599,"RA_OF_ASC_NODE":64.0236,"ARG_OF_PERICENTER":86.2952,"MEAN_ANOMALY":273.8202,"EPHEMERIS_TYPE":0,"CLASSIFICATION_TYPE":"U","NORAD_CAT_ID":60731,"ELEMENT_SET_NO":999,"REV_AT_EPOCH":9050,"BSTAR":1.3839e-5,"MEAN_MOTION_DOT":1.088e-5,"MEAN_MOTION_DDOT":0},{"OBJECT_NAME":"STARLINK-11266 [DTC]","OBJECT_ID":"2024-152N","EPOCH":"2026-03-20T03:42:39.076416","MEAN_MOTION":15.69705167,"ECCENTRICITY":0.0001096,"INCLINATION":53.1582,"RA_OF_ASC_NODE":64.291,"ARG_OF_PERICENTER":74.6886,"MEAN_ANOMALY":285.4253,"EPHEMERIS_TYPE":0,"CLASSIFICATION_TYPE":"U","NORAD_CAT_ID":60732,"ELEMENT_SET_NO":999,"REV_AT_EPOCH":9048,"BSTAR":4.1294e-6,"MEAN_MOTION_DOT":-8.8e-7,"MEAN_MOTION_DDOT":0},{"OBJECT_NAME":"STARLINK-32253","OBJECT_ID":"2024-152P","EPOCH":"2026-03-19T19:48:04.972320","MEAN_MOTION":15.30186291,"ECCENTRICITY":7.652e-5,"INCLINATION":53.16,"RA_OF_ASC_NODE":221.2667,"ARG_OF_PERICENTER":67.0585,"MEAN_ANOMALY":293.0497,"EPHEMERIS_TYPE":0,"CLASSIFICATION_TYPE":"U","NORAD_CAT_ID":60733,"ELEMENT_SET_NO":999,"REV_AT_EPOCH":8835,"BSTAR":-3.792871e-5,"MEAN_MOTION_DOT":-1.481e-5,"MEAN_MOTION_DDOT":0},{"OBJECT_NAME":"STARLINK-32179","OBJECT_ID":"2024-152Q","EPOCH":"2026-03-19T16:06:42.421248","MEAN_MOTION":15.30197579,"ECCENTRICITY":0.000203,"INCLINATION":53.1608,"RA_OF_ASC_NODE":222.4522,"ARG_OF_PERICENTER":94.0502,"MEAN_ANOMALY":266.0731,"EPHEMERIS_TYPE":0,"CLASSIFICATION_TYPE":"U","NORAD_CAT_ID":60734,"ELEMENT_SET_NO":999,"REV_AT_EPOCH":8824,"BSTAR":5.4657703e-5,"MEAN_MOTION_DOT":1.259e-5,"MEAN_MOTION_DDOT":0},{"OBJECT_NAME":"STARLINK-32272","OBJECT_ID":"2024-152R","EPOCH":"2026-03-20T04:00:01.999584","MEAN_MOTION":15.89547858,"ECCENTRICITY":0.0017525,"INCLINATION":53.1381,"RA_OF_ASC_NODE":204.389,"ARG_OF_PERICENTER":311.5837,"MEAN_ANOMALY":209.4011,"EPHEMERIS_TYPE":0,"CLASSIFICATION_TYPE":"U","NORAD_CAT_ID":60735,"ELEMENT_SET_NO":999,"REV_AT_EPOCH":598,"BSTAR":0.0010451,"MEAN_MOTION_DOT":0.00314221,"MEAN_MOTION_DDOT":4.7206e-5},{"OBJECT_NAME":"STARLINK-32289","OBJECT_ID":"2024-152T","EPOCH":"2026-03-19T18:56:34.458144","MEAN_MOTION":15.30234922,"ECCENTRICITY":0.0001385,"INCLINATION":53.1553,"RA_OF_ASC_NODE":221.7628,"ARG_OF_PERICENTER":104.8253,"MEAN_ANOMALY":255.2901,"EPHEMERIS_TYPE":0,"CLASSIFICATION_TYPE":"U","NORAD_CAT_ID":60737,"ELEMENT_SET_NO":999,"REV_AT_EPOCH":8839,"BSTAR":-0.00042338417,"MEAN_MOTION_DOT":-0.00012891,"MEAN_MOTION_DDOT":0},{"OBJECT_NAME":"STARLINK-32304","OBJECT_ID":"2024-152U","EPOCH":"2026-03-19T17:17:58.051392","MEAN_MOTION":15.30194519,"ECCENTRICITY":0.00011132,"INCLINATION":53.1615,"RA_OF_ASC_NODE":222.0478,"ARG_OF_PERICENTER":93.081,"MEAN_ANOMALY":267.0318,"EPHEMERIS_TYPE":0,"CLASSIFICATION_TYPE":"U","NORAD_CAT_ID":60738,"ELEMENT_SET_NO":999,"REV_AT_EPOCH":8838,"BSTAR":2.3475589e-5,"MEAN_MOTION_DOT":3.36e-6,"MEAN_MOTION_DDOT":0},{"OBJECT_NAME":"STARLINK-32235","OBJECT_ID":"2024-152V","EPOCH":"2026-03-19T18:47:27.354336","MEAN_MOTION":15.30202124,"ECCENTRICITY":7.069e-5,"INCLINATION":53.1601,"RA_OF_ASC_NODE":221.7242,"ARG_OF_PERICENTER":112.4975,"MEAN_ANOMALY":247.6101,"EPHEMERIS_TYPE":0,"CLASSIFICATION_TYPE":"U","NORAD_CAT_ID":60739,"ELEMENT_SET_NO":999,"REV_AT_EPOCH":8834,"BSTAR":9.0926197e-5,"MEAN_MOTION_DOT":2.335e-5,"MEAN_MOTION_DDOT":0},{"OBJECT_NAME":"STARLINK-32315","OBJECT_ID":"2024-152W","EPOCH":"2026-03-20T00:00:01.999296","MEAN_MOTION":15.30199008,"ECCENTRICITY":0.0001171,"INCLINATION":53.1587,"RA_OF_ASC_NODE":220.6813,"ARG_OF_PERICENTER":78.1027,"MEAN_ANOMALY":55.8476,"EPHEMERIS_TYPE":0,"CLASSIFICATION_TYPE":"U","NORAD_CAT_ID":60740,"ELEMENT_SET_NO":999,"REV_AT_EPOCH":582,"BSTAR":-0.00048496,"MEAN_MOTION_DOT":-0.00014693,"MEAN_MOTION_DDOT":0},{"OBJECT_NAME":"STARLINK-11242 [DTC]","OBJECT_ID":"2024-154A","EPOCH":"2026-03-20T04:02:04.441344","MEAN_MOTION":15.69704016,"ECCENTRICITY":0.0001085,"INCLINATION":53.1598,"RA_OF_ASC_NODE":79.3544,"ARG_OF_PERICENTER":89.9256,"MEAN_ANOMALY":270.1887,"EPHEMERIS_TYPE":0,"CLASSIFICATION_TYPE":"U","NORAD_CAT_ID":60903,"ELEMENT_SET_NO":999,"REV_AT_EPOCH":9016,"BSTAR":-5.5823e-6,"MEAN_MOTION_DOT":-1.264e-5,"MEAN_MOTION_DDOT":0},{"OBJECT_NAME":"STARLINK-11256 [DTC]","OBJECT_ID":"2024-154B","EPOCH":"2026-03-20T03:55:01.385472","MEAN_MOTION":15.69696384,"ECCENTRICITY":0.0002106,"INCLINATION":53.1596,"RA_OF_ASC_NODE":79.3232,"ARG_OF_PERICENTER":48.9784,"MEAN_ANOMALY":311.1415,"EPHEMERIS_TYPE":0,"CLASSIFICATION_TYPE":"U","NORAD_CAT_ID":60904,"ELEMENT_SET_NO":999,"REV_AT_EPOCH":9016,"BSTAR":-1.2179e-5,"MEAN_MOTION_DOT":-2.065e-5,"MEAN_MOTION_DDOT":0}]
