STARLINK-11235 [DTC]    
1 60726U 24152G   26079.18404983  .00001227  00000+0  14984-4 0  9997
2 60726  53.1602  64.4989 0001154  91.8924 268.2226 15.69712410 90614
STARLINK-11080 [DTC]    
1 60727U 24152H   26079.17914490  .00000152  00000+0  61106-5 0  9991
2 60727  53.1581  64.4664 0000920  82.3610 277.7512 15.69710942 90619
STARLINK-11249 [DTC]    
1 60728U 24152J   26079.17423742 -.00004644  00000+0 -33457-4 0  9996
2 60728  53.1592  64.4346 0001093  97.4171 262.6971 15.69733142 90484
STARLINK-11146 [DTC]    
1 60729U 24152K   26079.23300686 -.00000604  00000+0 -13186-6 0  9996
2 60729  53.1601  64.0743 0000944  94.9887 265.1238 15.69700053 90628
STARLINK-11255 [DTC]    
1 60730U 24152L   26079.16442888  .00000517  00000+0  91236-5 0  9993
2 60730  53.1593  64.3685 0000965  91.2260 268.8869 15.69708831 90493
STARLINK-11254 [DTC]    
1 60731U 24152M   26079.22319232  .00001088  00000+0  13839-4 0  9993
2 60731  53.1599  64.0236 0001196  86.2952 273.8202 15.69706029 90504
STARLINK-11266 [DTC]    
1 60732U 24152N   26079.15461894 -.00000088  00000+0  41294-5 0  9995
2 60732  53.1582  64.2910 0001096  74.6886 285.4253 15.69705167 90488
STARLINK-32253          
1 60733U 24152P   26078.82505755 -.00001481  00000+0 -37929-4 0  9992
2 60733  53.1600 221.2667 0000765  67.0585 293.0497 15.30186291 88355
STARLINK-32179          
1 60734U 24152Q   26078.67132432  .00001259  00000+0  54658-4 0  9993
2 60734  53.1608 222.4522 0002030  94.0502 266.0731 15.30197579 88243
STARLINK-32272          
1 60735U 24152R   26079.16668981  .00314221  47206-4  10451-2 0  9993
2 60735  53.1381 204.3890 0017525 311.5837 209.4011 15.89547858  5987
STARLINK-32289          
1 60737U 24152T   26078.78928771 -.00012891  00000+0 -42338-3 0  9994
2 60737  53.1553 221.7628 0001385 104.8253 255.2901 15.30234922 88398
STARLINK-32304          
1 60738U 24152U   26078.72081078  .00000336  00000+0  23476-4 0  9991
2 60738  53.1615 222.0478 0001113  93.0810 267.0318 15.30194519 88381
STARLINK-32235          
1 60739U 24152V   26078.78295549  .00002335  00000+0  90926-4 0  9993
2 60739  53.1601 221.7242 0000706 112.4975 247.6101 15.30202124 88349
STARLINK-32315          
1 60740U 24152W   26079.00002314 -.00014693  00000+0 -48496-3 0  9993
2 60740  53.1587 220.6813 0001171  78.1027  55.8476 15.30199008  5821
STARLINK-11242 [DTC]    
1 60903U 24154A   26079.16810696 -.00001264  00000+0 -55823-5 0  9997
2 60903  53.1598  79.3544 0001085  89.9256 270.1887 15.69704016 90164
STARLINK-11256 [DTC]    
1 60904U 24154B   26079.16321048 -.00002065  00000+0 -12179-4 0  9992
2 60904  53.1596  79.3232 0002106  48.9784 311.1415 15.69696384 90164
